#cP2022  3  9 18  0  0.00000000     576 d+D   IGb14 EXT AIUB
## 2200 324000.00000000   300.00000000 59647 0.7500000000000
+   76   G01G02G03G04G05G06G07G08G09G10G11G12G13G14G15G16G17
+        G18G19G20G21G22G23G24G25G26G27G28G30G31G32R01R02R03
+        R04R05R07R08R09R11R12R13R14R15R17R18R19R20R21R22R24
+        E01E02E03E04E05E07E08E09E10E11E12E13E14E15E18E19E21
+        E25E26E27E30E31E33E34E36  0  0  0  0  0  0  0  0  0
++         5  7  6  8  7  6  7  6  6  5  8  7  7  7  7  7  7
++         8  7  7  7  7  7  7  6  6  6  7  5  7  6  9  7  8
++         8  8  8  7  7  6  7  7  6  7  8  7  9 10  8  7  8
++         6  6  6  6  5  6  7  6  6  7  7  7  7  7  7  7  6
++         7  6  6  6  6  6  6  6  0  0  0  0  0  0  0  0  0
%c M  cc GPS ccc cccc cccc cccc cccc ccccc ccccc ccccc ccccc
%c cc cc ccc ccc cccc cccc cccc cccc ccccc ccccc ccccc ccccc
%f  1.2500000  1.025000000  0.00000000000  0.000000000000000
%f  0.0000000  0.000000000  0.00000000000  0.000000000000000
%i    0    0    0    0      0      0      0      0         0
%i    0    0    0    0      0      0      0      0         0
/* Center for Orbit Determination in Europe (CODE)          
/* Ultra-rapid GRE orbits starting year-day 22068 18 hour   
/* Observed/predicted: 24/24 hours (data used up to 069R)   
/* PCV:IGS14      OL/AL:FES2014b NONE     YN ORB:CoN CLK:BRD
*  2022  3  9 23  0  0.00000000
PG01  17969.357514   7365.913493  17996.853622    412.792988
PG02 -14922.516182 -21878.686647    547.275493   -652.047100
PG03  17502.096793  -4159.359588  19399.190864   -156.166574
PG04  26594.021994    763.465032    235.150682   -184.728398
PG05 -10537.791987 -12153.140620 -21272.399417    -74.109273
PG06  -2891.509444 -22642.615983  13581.506223    226.058272
PG07  11937.829267  -9639.618287 -21263.716786    315.134497
PG08  23713.319713   6521.594511 -10504.250823    -59.214688
PG09  23217.134044  -7972.853919 -10248.106373   -350.595425
PG10 -11077.737337  23812.830672   2837.084281   -342.183275
PG11 -12603.151456 -23382.569260   -550.018021    -67.213992
PG12 -16615.548492   -239.601311  20420.847903   -182.468992
PG13 -17175.654865 -13030.437492 -15772.837626    274.208273
PG14  12681.980739 -23211.388270   1918.620975    -92.240571
PG15 -24485.136093  -4290.983782 -10196.611184    -78.020082
PG16   6025.392299  16008.176930 -20461.595614   -478.778836
PG17  10305.789312 -13501.834974  20866.178137    585.140348
PG18 -11587.907057   9789.525973 -21797.167596    223.484727
PG19   1757.176073 -14601.247046  21854.817738    128.917083
PG20  -4942.529056 -20551.355185 -16228.936485    516.370814
PG21  19859.307744  14998.517132  10813.166625    159.173498
PG22   1886.208986  15468.798779  21926.817832    225.072343
PG23 -16481.340534  19036.010362  -8310.749269     -5.441025
PG24 -20000.279703 -10161.828822  14230.866533    269.412813
PG25 -18239.155610  13264.301606  13518.133211    296.117073
PG26  -1962.886250  23577.604994 -11839.361021    189.505178
PG27  14654.330760  12508.367984 -18654.655539    148.467275
PG28   7260.780726 -23517.482243  10789.558146    383.971334
PG30   5778.001821 -17741.819426 -18735.573241   -517.813162
PG31   4235.232377  23479.591112  11034.871939   -168.205153
PG32  -5553.682858  15053.897223  21270.578851    -81.728096
PR01   9521.679687 -15026.454406 -18270.492170      7.197261
PR02  -9994.738199  -6821.370431 -22400.166867    511.990945
PR03 -21894.881120   4571.077483 -12163.518463     52.828969
PR04 -21372.024777  13110.902900   4695.935923    131.194086
PR05  -9100.711203  14410.666813  18983.026553     89.078069
PR07  22193.407370  -4975.270005  11638.310749     32.479800
PR08  21336.797091 -13186.507233  -4653.073074    -63.934181
PR09   6917.470847  19138.223826 -15414.417398     43.503255
PR11   9043.939302 -15932.302934 -17738.355132     43.936159
PR12   1844.316016 -25426.449608  -1162.924248     17.389655
PR13  -6211.122518 -19955.312512  14606.400827    -19.248510
PR14 -11037.155932  -1776.214064  22932.394448     75.209438
PR15  -9134.501902  16487.467853  17198.662197     97.656690
PR17 -21654.038104  -8736.061722 -10295.750449    508.205407
PR18 -12993.066739   2991.825711 -21716.282360    109.785116
PR19   1004.413083  12726.375382 -22082.541480   -180.983764
PR20  17521.896823  16806.435718  -7894.493794    -66.419436
PR21  21256.314292   7928.051612  11644.983685   -284.028916
PR22  12408.006090  -3423.571287  22031.474846   -169.596825
PR24 -18159.754102 -16414.705061   7202.593698     83.639418
PE01  -9762.614292 -16576.253309  22494.569312   -593.706844
PE02   9889.462590  16401.073456 -22570.508380    285.209199
PE03  20180.958422  10564.230327  18897.486577   -535.703303
PE04 -29374.656373   2116.169993  -2956.305340   -981.084676
PE05  -1048.979068  17269.423129  24021.917376   -201.885794
PE07  21373.950876 -13827.003301 -15090.956017   -646.732922
PE08  29374.352374  -2493.597129   2611.992791   -492.432317
PE09 -21158.937770  13917.862286  15337.359308   5334.051716
PE10 -17067.672398   3447.722887 -23939.101189   -499.586855
PE11  -9819.843374  13306.435383 -24555.796448   4270.457676
PE12 -21314.297367  -6424.872079 -19493.302739   4721.540683
PE13  10292.210267 -12669.260944  24698.952089    427.157960
PE14  23505.806578  -3243.990895   5287.904659  -1772.539717
PE15  21346.017240   6573.171651  19440.312954    758.756979
PE18 -25410.202252  11615.007908 -15975.130613  -1703.015862
PE19 -17982.730201 -11764.844413 -20346.416224  -1048.287344
PE21   3710.006590 -27581.610582  10089.913080   -721.598059
PE25  -3888.683996  27627.825573  -9871.470975   -566.235325
PE26  -7414.412544 -24680.156631  14566.028345   -893.771539
PE27  15874.159892 -23391.836658  -8805.778179   -249.520971
PE30  18495.480343  -4221.637806 -22741.551139   -335.605877
PE31 -18596.787005   5458.128374  22371.350982   -493.293239
PE33 -19756.597021 -21860.886321  -2729.146642   -458.719791
PE34  19888.926738  21724.678086   2941.603857   -505.893704
PE36   6755.746777  24360.553668 -15403.276688   -343.032503
EOF
